[{"OBJECT_NAME":"O\/OREOS (USA 219)","OBJECT_ID":"2010-062C","EPOCH":"2026-03-09T22:23:02.393376","MEAN_MOTION":14.93281746,"ECCENTRICITY":0.0016854,"INCLINATION":71.9709,"RA_OF_ASC_NODE":305.0929,"ARG_OF_PERICENTER":256.1776,"MEAN_ANOMALY":103.7519,"EPHEMERIS_TYPE":0,"CLASSIFICATION_TYPE":"U","NORAD_CAT_ID":37224,"ELEMENT_SET_NO":999,"REV_AT_EPOCH":10182,"BSTAR":0.00028679427,"MEAN_MOTION_DOT":2.95e-5,"MEAN_MOTION_DDOT":0},{"OBJECT_NAME":"COSMOS 2535","OBJECT_ID":"2019-039A","EPOCH":"2026-03-10T00:12:21.928896","MEAN_MOTION":14.91716914,"ECCENTRICITY":0.00085444,"INCLINATION":97.5892,"RA_OF_ASC_NODE":100.9236,"ARG_OF_PERICENTER":173.2991,"MEAN_ANOMALY":186.8344,"EPHEMERIS_TYPE":0,"CLASSIFICATION_TYPE":"U","NORAD_CAT_ID":44421,"ELEMENT_SET_NO":999,"REV_AT_EPOCH":36185,"BSTAR":0.00020436382,"MEAN_MOTION_DOT":2.004e-5,"MEAN_MOTION_DDOT":0}]
