O/OREOS (USA 219)       
1 37224U 10062C   26068.93266659  .00002950  00000+0  28679-3 0  9995
2 37224  71.9709 305.0929 0016854 256.1776 103.7519 14.93281746101822
COSMOS 2535             
1 44421U 19039A   26069.00858714  .00002004  00000+0  20436-3 0  9996
2 44421  97.5892 100.9236 0008544 173.2991 186.8344 14.91716914361851
